{
"type": "FeatureCollection",
"name": "crosswalks",
"crs": { "type": "name", "properties": { "name": "urn:ogc:def:crs:OGC:1.3:CRS84" } },
"features": [
{ "type": "Feature", "properties": { }, "geometry": { "type": "Polygon", "coordinates": [ [ [ -111.914213613644066, 40.782476495434544 ], [ -111.914213968350197, 40.782408490390537 ], [ -111.914214839757065, 40.782401634340573 ], [ -111.914212587353575, 40.782401652186103 ], [ -111.914212516922021, 40.782396515884713 ], [ -111.91421171909974, 40.782385270037494 ], [ -111.914210633044704, 40.78237647259742 ], [ -111.914210927985522, 40.782374513361809 ], [ -111.914214775831496, 40.78237350442636 ], [ -111.914215563390627, 40.782360533731818 ], [ -111.914215429033518, 40.782327267515953 ], [ -111.914216038836173, 40.782301333774718 ], [ -111.914174205194627, 40.782301420598714 ], [ -111.914173612144353, 40.782328577268821 ], [ -111.91417324025349, 40.782348393815987 ], [ -111.91417292202226, 40.782372123735662 ], [ -111.914179702706093, 40.782373782301754 ], [ -111.914178435930282, 40.782398742798009 ], [ -111.914177862815336, 40.78240388419799 ], [ -111.914172714464286, 40.782403924986092 ], [ -111.914173297828029, 40.782423000127913 ], [ -111.914173318137827, 40.782447950426921 ], [ -111.91417264124334, 40.782468992451854 ], [ -111.914171659251366, 40.782479518562781 ], [ -111.914213613644066, 40.782476495434544 ] ] ] } },
{ "type": "Feature", "properties": { }, "geometry": { "type": "Polygon", "coordinates": [ [ [ -111.914072667851514, 40.782559067958921 ], [ -111.91387380561055, 40.782560153884162 ], [ -111.913874135723546, 40.782549021407739 ], [ -111.913871166011262, 40.782543663455961 ], [ -111.913868372272646, 40.782539404865986 ], [ -111.91386283843832, 40.782534801058596 ], [ -111.913860549151423, 40.782532128453511 ], [ -111.913856642620345, 40.782528857125776 ], [ -111.913856475028879, 40.782528369228366 ], [ -111.913854199152809, 40.782526674966356 ], [ -111.913870277722921, 40.782525813789491 ], [ -111.913904378908128, 40.782525054481233 ], [ -111.91393076425706, 40.782524845500674 ], [ -111.913956194346952, 40.78252537791743 ], [ -111.913980012221373, 40.782525678486373 ], [ -111.913998353256432, 40.782525533208023 ], [ -111.914017026123432, 40.782526119135291 ], [ -111.914032139373276, 40.782525265582372 ], [ -111.914048874898555, 40.782525377626065 ], [ -111.91406335130938, 40.782525018338454 ], [ -111.91406913650826, 40.782524483285634 ], [ -111.914075250186372, 40.782524434855119 ], [ -111.914080398546872, 40.782524394071281 ], [ -111.914085221781392, 40.782524111250424 ], [ -111.91409326944806, 40.782524292110658 ], [ -111.91408949872077, 40.782530926515172 ], [ -111.914087320088541, 40.782536325245545 ], [ -111.914083861072342, 40.782542223343491 ], [ -111.914082319277725, 40.782547127804186 ], [ -111.914081752861136, 40.782552758375211 ], [ -111.914081803162475, 40.782556427161957 ], [ -111.91408184005013, 40.78255911760558 ], [ -111.914072667851514, 40.782559067958921 ] ] ] } },
{ "type": "Feature", "properties": { }, "geometry": { "type": "Polygon", "coordinates": [ [ [ -111.914082069265802, 40.782247235037822 ], [ -111.913864236863915, 40.78224944966864 ], [ -111.913869304740913, 40.78224353883499 ], [ -111.913873414008776, 40.782238124817937 ], [ -111.913875579238606, 40.782231747748007 ], [ -111.913877754525942, 40.782226104435452 ], [ -111.913879252744366, 40.782218020361576 ], [ -111.913898538892241, 40.78221639993987 ], [ -111.913918810468971, 40.782216239384177 ], [ -111.913935539211096, 40.782215862273546 ], [ -111.913952918200891, 40.782215969234855 ], [ -111.913970618961756, 40.782216073644868 ], [ -111.913990568766934, 40.782215915625265 ], [ -111.914008591298796, 40.782216017480714 ], [ -111.914027250666379, 40.78221562506409 ], [ -111.914040443279205, 40.782215520561152 ], [ -111.914054607911652, 40.782215897581608 ], [ -111.914064264396274, 40.782216065699707 ], [ -111.914071024941521, 40.78221625675765 ], [ -111.91407584983051, 40.782216096230314 ], [ -111.914076231962071, 40.782220496225705 ], [ -111.914076128083707, 40.782224655458748 ], [ -111.914076644273976, 40.782227097493269 ], [ -111.914077147050818, 40.782228561184596 ], [ -111.914077983335602, 40.782230878377227 ], [ -111.914078355407284, 40.782234544615221 ], [ -111.914079862061485, 40.782238813396255 ], [ -111.91408168881037, 40.782242957335392 ], [ -111.914083478672168, 40.782244410830721 ], [ -111.914084479196362, 40.782246971334601 ], [ -111.914082069265802, 40.782247235037822 ] ] ] } },
{ "type": "Feature", "properties": { }, "geometry": { "type": "Polygon", "coordinates": [ [ [ -111.913814032836115, 40.782507546385588 ], [ -111.913797883869648, 40.782503271252679 ], [ -111.913784349312579, 40.782501910761809 ], [ -111.913785666522188, 40.782480619055804 ], [ -111.913786658606512, 40.782459085312084 ], [ -111.913787318861182, 40.782436820359052 ], [ -111.913788052866792, 40.782419936293735 ], [ -111.913789849405688, 40.782410137572285 ], [ -111.913791558783274, 40.782393979619762 ], [ -111.913791766523133, 40.782362178368032 ], [ -111.913793110547132, 40.78234284334799 ], [ -111.913792634567969, 40.782331594948808 ], [ -111.913792802132164, 40.782320341453243 ], [ -111.913794337212039, 40.782303206431294 ], [ -111.913795257243265, 40.782288155485077 ], [ -111.913795056102956, 40.782273480336201 ], [ -111.913810497775088, 40.78227311343629 ], [ -111.913818210230005, 40.782272318521031 ], [ -111.913823975294548, 40.782270315965803 ], [ -111.913827833198013, 40.782270040800711 ], [ -111.913830085597283, 40.782270022962727 ], [ -111.913828104747182, 40.782289852251509 ], [ -111.913824880455678, 40.782336354134912 ], [ -111.913823569965516, 40.78235813501334 ], [ -111.91382129415905, 40.782379923536489 ], [ -111.913819122276905, 40.782409294219548 ], [ -111.913817684391191, 40.782421780837005 ], [ -111.913817282222539, 40.78243939611162 ], [ -111.913816253271492, 40.78245823941171 ], [ -111.913814032836115, 40.782507546385588 ] ] ] } },
{ "type": "Feature", "properties": { }, "geometry": { "type": "Polygon", "coordinates": [ [ [ -111.911649149495886, 40.782207163841235 ], [ -111.911695057126181, 40.782152007957052 ], [ -111.911679501750086, 40.782144058650914 ], [ -111.911666530578216, 40.782136822762567 ], [ -111.911661023683891, 40.782134175535006 ], [ -111.911655932206116, 40.782138374172021 ], [ -111.911648031745159, 40.782148954923741 ], [ -111.911639812855128, 40.78215978280307 ], [ -111.911630652060026, 40.782172330410035 ], [ -111.9116224130982, 40.78218169077234 ], [ -111.911617351713431, 40.78218809068138 ], [ -111.911614817676366, 40.78219104604986 ], [ -111.911649149495886, 40.782207163841235 ] ] ] } },
{ "type": "Feature", "properties": { }, "geometry": { "type": "Polygon", "coordinates": [ [ [ -111.911109235834147, 40.782165685729602 ], [ -111.911086574821496, 40.782155835549851 ], [ -111.911071364682854, 40.782149595722359 ], [ -111.911053882096695, 40.782141906160568 ], [ -111.911039959047955, 40.782135656166716 ], [ -111.911024578006277, 40.782128683845123 ], [ -111.911009535449168, 40.782122931911154 ], [ -111.91099433200921, 40.782117181245354 ], [ -111.910963921795144, 40.782105435321604 ], [ -111.9109507893467, 40.782109942020853 ], [ -111.910938618867135, 40.782114196511969 ], [ -111.910928050556649, 40.782117949128867 ], [ -111.910942948929645, 40.78212492527377 ], [ -111.910957830596175, 40.782130678486659 ], [ -111.910975950026483, 40.782137873810491 ], [ -111.910993419234615, 40.782144585040129 ], [ -111.911013492693357, 40.782153477217804 ], [ -111.911032909246529, 40.782161396128835 ], [ -111.911047482526712, 40.782168130214437 ], [ -111.911060111813939, 40.782173901197524 ], [ -111.911070793764864, 40.782178464492716 ], [ -111.911080822147824, 40.782182299110119 ], [ -111.911085045281396, 40.782185201114075 ], [ -111.911088929932134, 40.782186882728489 ], [ -111.911109235834147, 40.782165685729602 ] ] ] } },
{ "type": "Feature", "properties": { }, "geometry": { "type": "Polygon", "coordinates": [ [ [ -111.910603187846505, 40.782153291328321 ], [ -111.910551868158677, 40.782165682318059 ], [ -111.910495406792919, 40.782178603081093 ], [ -111.910448575161979, 40.782189735549174 ], [ -111.91041457762779, 40.782198076002196 ], [ -111.91038571506688, 40.782205397482336 ], [ -111.910356183397823, 40.782187284544513 ], [ -111.9103545545034, 40.782185829721151 ], [ -111.910374434184263, 40.782180536019688 ], [ -111.910422237815041, 40.782169885137399 ], [ -111.910442120825621, 40.782164836010423 ], [ -111.910467135470057, 40.78215852332746 ], [ -111.910486214046045, 40.782153480540195 ], [ -111.910502098290436, 40.782150175242172 ], [ -111.910520858430587, 40.782145379574274 ], [ -111.910536420900257, 40.782142076810615 ], [ -111.910549730971425, 40.782138791818824 ], [ -111.9105553452615, 40.782137524453645 ], [ -111.910558737218579, 40.782138476136709 ], [ -111.910603187846505, 40.782153291328321 ] ] ] } },
{ "type": "Feature", "properties": { }, "geometry": { "type": "Polygon", "coordinates": [ [ [ -111.909296993087381, 40.782189765405967 ], [ -111.909267228466703, 40.78220174135091 ], [ -111.909259329161401, 40.782188839139373 ], [ -111.909249790981903, 40.782173748329654 ], [ -111.90924023946431, 40.782157679174517 ], [ -111.909231033071563, 40.78214331958597 ], [ -111.909221464885249, 40.782126027498457 ], [ -111.909219822674672, 40.782123594314264 ], [ -111.909249959075126, 40.782115284638145 ], [ -111.909296993087381, 40.782189765405967 ] ] ] } }
]
}
