{
"type": "FeatureCollection",
"name": "intersections",
"crs": { "type": "name", "properties": { "name": "urn:ogc:def:crs:OGC:1.3:CRS84" } },
"features": [
{ "type": "Feature", "properties": { "fid": 1, "id": "1" }, "geometry": { "type": "Polygon", "coordinates": [ [ [ -111.914170748130232, 40.782482752163361 ], [ -111.914149379454727, 40.782487713950736 ], [ -111.914138097545134, 40.782492595824884 ], [ -111.914121158251703, 40.782498720640277 ], [ -111.914103976016193, 40.782510119122946 ], [ -111.914094976138017, 40.782520494284697 ], [ -111.914092188509187, 40.782524110739601 ], [ -111.914070133545906, 40.782525004327702 ], [ -111.91402789517845, 40.782525338917459 ], [ -111.913991025263442, 40.782526349842904 ], [ -111.913900543079649, 40.782525868389492 ], [ -111.913883213003999, 40.782526484895044 ], [ -111.913858626489869, 40.7825266796183 ], [ -111.913847173773448, 40.782519102328067 ], [ -111.91383447006551, 40.782512253818382 ], [ -111.913818965580589, 40.782508063360609 ], [ -111.91381452306095, 40.782505941919858 ], [ -111.913820265588839, 40.782418912644687 ], [ -111.913823801752997, 40.782377908801138 ], [ -111.913828477244479, 40.782328029816981 ], [ -111.913829337425838, 40.782298788780068 ], [ -111.913832131563268, 40.78227264754922 ], [ -111.913843101532549, 40.782268007800134 ], [ -111.913851539963929, 40.78226266922475 ], [ -111.913855601573886, 40.782260001185037 ], [ -111.913863064813896, 40.782252513708961 ], [ -111.91386806220126, 40.782249119383224 ], [ -111.913868676200863, 40.782247916396429 ], [ -111.91388002377532, 40.782247826524326 ], [ -111.913901464651232, 40.782248135960423 ], [ -111.913921010980417, 40.782248220773212 ], [ -111.913955677554981, 40.782247466947204 ], [ -111.913999504938062, 40.782248078296917 ], [ -111.914035120427215, 40.782247556555461 ], [ -111.914067285026249, 40.782248260263628 ], [ -111.914083669396248, 40.782247651222256 ], [ -111.914090096792961, 40.78225658623554 ], [ -111.91409442933255, 40.782262183096513 ], [ -111.914100502100652, 40.782268245420987 ], [ -111.914107395747209, 40.782276697490076 ], [ -111.914114708006622, 40.78228119243343 ], [ -111.914128981180809, 40.782287549229473 ], [ -111.914136585656976, 40.782290364482904 ], [ -111.914140860711171, 40.782291768363677 ], [ -111.91414814669244, 40.782294346514767 ], [ -111.914157964215008, 40.782297623483906 ], [ -111.914163496827271, 40.782298777776148 ], [ -111.914172349007274, 40.782300624643156 ], [ -111.914171857893379, 40.782374013625379 ], [ -111.914159884804377, 40.78237446791902 ], [ -111.914154999034253, 40.782374506626034 ], [ -111.914149336735122, 40.782375390171516 ], [ -111.914144493673206, 40.782378543661984 ], [ -111.91414278629469, 40.782380474186596 ], [ -111.914140763705078, 40.782382407208388 ], [ -111.914139534070742, 40.782384693385325 ], [ -111.914138629503057, 40.78238769586136 ], [ -111.914138516248187, 40.782390931693179 ], [ -111.914138545815263, 40.782393088082024 ], [ -111.914138736273145, 40.78239548282103 ], [ -111.914139530871296, 40.782395955775606 ], [ -111.91414018757537, 40.782397867571326 ], [ -111.914142251231041, 40.78239892953404 ], [ -111.914145265447956, 40.782400343403275 ], [ -111.914147171498243, 40.782401406614511 ], [ -111.914149399330228, 40.782402946526005 ], [ -111.914151932517598, 40.782403765143997 ], [ -111.914156194438235, 40.782404210629046 ], [ -111.914161237816089, 40.782404170673345 ], [ -111.914167699643954, 40.78240411947975 ], [ -111.914171319643742, 40.782403731363125 ], [ -111.914170748130232, 40.782482752163361 ] ] ] } },
{ "type": "Feature", "properties": { "fid": 2, "id": "2" }, "geometry": { "type": "Polygon", "coordinates": [ [ [ -111.911088283467279, 40.78270081844957 ], [ -111.91117305128634, 40.782624156197315 ], [ -111.911068303279635, 40.782557470280572 ], [ -111.910997362959492, 40.782515630898047 ], [ -111.910961074875857, 40.782497652996092 ], [ -111.910978200437143, 40.78249490859492 ], [ -111.910995361645959, 40.782494773108539 ], [ -111.91102370437784, 40.782496506238381 ], [ -111.911056337413399, 40.782498205487123 ], [ -111.911096648428583, 40.782496582604146 ], [ -111.911194932003539, 40.782498415726337 ], [ -111.911270897095932, 40.78249977272489 ], [ -111.911265906973568, 40.782479998530967 ], [ -111.911243721416682, 40.782387221030582 ], [ -111.911234441866085, 40.782343997920023 ], [ -111.911211424801493, 40.782261011473082 ], [ -111.911201615404053, 40.782226109364281 ], [ -111.911065841260282, 40.782228159911455 ], [ -111.911057800318289, 40.782228468011589 ], [ -111.911050982958642, 40.782224118814945 ], [ -111.91105092279787, 40.78221971626688 ], [ -111.911054040242917, 40.782212353281373 ], [ -111.911065191941816, 40.782204193023709 ], [ -111.911087495331444, 40.782187872505197 ], [ -111.911134230800201, 40.78214616398806 ], [ -111.911160865127798, 40.782117089412772 ], [ -111.911045882053941, 40.782039232117164 ], [ -111.911003119071069, 40.78206549865515 ], [ -111.91095453744623, 40.782089854214206 ], [ -111.910912264216122, 40.782104864681742 ], [ -111.910874435609998, 40.782115437025126 ], [ -111.910817971010658, 40.782128113358972 ], [ -111.910745967830621, 40.782134063162289 ], [ -111.91068355762998, 40.782135534187447 ], [ -111.910577863089486, 40.782125116139312 ], [ -111.910470607606669, 40.782094652093669 ], [ -111.910391627958802, 40.782061029513358 ], [ -111.910351340998204, 40.782032972320941 ], [ -111.910309063337991, 40.782000527795581 ], [ -111.910204584509714, 40.782079138730559 ], [ -111.910229989836324, 40.782101442668775 ], [ -111.910322857868039, 40.782162352382024 ], [ -111.910374815495373, 40.782196677429631 ], [ -111.910393591784555, 40.782204846112222 ], [ -111.910396936412582, 40.782214114995014 ], [ -111.91040152136884, 40.782219949518137 ], [ -111.910393235469115, 40.782225885589817 ], [ -111.910380364612266, 40.782225987137146 ], [ -111.910273483067229, 40.782222916547639 ], [ -111.910250328882412, 40.782224077651975 ], [ -111.910243893453924, 40.782224128417838 ], [ -111.910271801482097, 40.782335451516325 ], [ -111.910278107651862, 40.782373072077391 ], [ -111.91028208245929, 40.782381357542363 ], [ -111.910290265841894, 40.782415049495157 ], [ -111.910298422516803, 40.782446784758754 ], [ -111.910308529873063, 40.782479972306909 ], [ -111.910312591520167, 40.782494617007686 ], [ -111.910544348041782, 40.782498659127107 ], [ -111.910660199582992, 40.78249872332399 ], [ -111.910665374673485, 40.782500639380665 ], [ -111.910646201942626, 40.782510575188262 ], [ -111.910632459254799, 40.782517532791097 ], [ -111.910618089721964, 40.782525718401097 ], [ -111.91059829347482, 40.782537126795646 ], [ -111.910552959152994, 40.782563658070139 ], [ -111.910501661417968, 40.78260124393978 ], [ -111.910459621570695, 40.782633375266492 ], [ -111.910426638102379, 40.782668859696003 ], [ -111.910392454341803, 40.782710713507882 ], [ -111.910435745708767, 40.782723091784163 ], [ -111.910462298169818, 40.782735112896987 ], [ -111.910479406740578, 40.782715408912317 ], [ -111.910484474955098, 40.7827094982242 ], [ -111.910504297995232, 40.782700046536952 ], [ -111.910524764577019, 40.782690589768137 ], [ -111.910552947038468, 40.782680582883899 ], [ -111.910577958524001, 40.782674025589507 ], [ -111.910603606870239, 40.782666974039088 ], [ -111.910622846467064, 40.782661929958586 ], [ -111.910647221073205, 40.782655866900058 ], [ -111.910674813409258, 40.782649778441403 ], [ -111.910707580843123, 40.782645606030798 ], [ -111.91073391280483, 40.782641484404543 ], [ -111.910758340852865, 40.782639334698821 ], [ -111.910780221442806, 40.782639161994425 ], [ -111.91079243546578, 40.782638087137315 ], [ -111.910814342786693, 40.782639871114469 ], [ -111.910824632851885, 40.78263930066533 ], [ -111.910845266446643, 40.782642073140295 ], [ -111.910855573219862, 40.782642725618388 ], [ -111.91087554990338, 40.78264452482393 ], [ -111.910891658623598, 40.782645865335439 ], [ -111.910914222863454, 40.782648622557332 ], [ -111.910949373030022, 40.782653971150729 ], [ -111.910970371853836, 40.782659920680828 ], [ -111.911019475267523, 40.782673720527185 ], [ -111.911044707294238, 40.782683305807197 ], [ -111.911088283467279, 40.78270081844957 ] ] ] } }
]
}
