{
"type": "FeatureCollection",
"name": "road_surface",
"crs": { "type": "name", "properties": { "name": "urn:ogc:def:crs:OGC:1.3:CRS84" } },
"features": [
{ "type": "Feature", "properties": { "id": "7" }, "geometry": { "type": "Polygon", "coordinates": [ [ [ -111.907522802512233, 40.782491926692018 ], [ -111.907445804880481, 40.782490442525912 ], [ -111.907036587756934, 40.782478683659036 ], [ -111.906954578921088, 40.782479328275173 ], [ -111.906744259677055, 40.782478891467591 ], [ -111.906649370540649, 40.782475805930154 ], [ -111.905836451536516, 40.782470348694133 ], [ -111.904847244031629, 40.782473582282833 ], [ -111.904695563245838, 40.78247233361342 ], [ -111.904392716519553, 40.782474011079096 ], [ -111.903572977094868, 40.782472422501321 ], [ -111.903471022131612, 40.78247200182799 ], [ -111.903386932671367, 40.78247126705282 ], [ -111.903246181314017, 40.782473500847004 ], [ -111.903237916914861, 40.782472259464534 ], [ -111.903216733358505, 40.782472860640432 ], [ -111.903194187145147, 40.782474343194771 ], [ -111.903189173839948, 40.782222658347095 ], [ -111.903296838768384, 40.782221815568782 ], [ -111.903451692997905, 40.782220603226421 ], [ -111.903601984611967, 40.782220819551817 ], [ -111.903825112401123, 40.782219768617672 ], [ -111.904048249619834, 40.782219413751157 ], [ -111.904475267618096, 40.782217808806479 ], [ -111.904720854076018, 40.782217276669186 ], [ -111.904987978221158, 40.782216923379437 ], [ -111.90506861706136, 40.782216639194324 ], [ -111.905234490405277, 40.782217079461383 ], [ -111.905561631952793, 40.782216253988224 ], [ -111.905886029317543, 40.782215797417706 ], [ -111.906305730954813, 40.782215287995648 ], [ -111.906553235145878, 40.782221006051969 ], [ -111.906634308433738, 40.782218975926803 ], [ -111.906971533896836, 40.782218415510478 ], [ -111.907633204016221, 40.782220875117908 ], [ -111.907866897456742, 40.782221822977327 ], [ -111.908046491483276, 40.782220409815537 ], [ -111.908493700847615, 40.782221069106157 ], [ -111.908691544813976, 40.782213938668214 ], [ -111.908833513687284, 40.782208641136364 ], [ -111.909236434568399, 40.782220791532858 ], [ -111.909326708694849, 40.782221473306848 ], [ -111.909514554059285, 40.782220341121068 ], [ -111.90980820778779, 40.782216632979129 ], [ -111.909983716399964, 40.782218035305434 ], [ -111.910219308929825, 40.782223839433037 ], [ -111.910300412968908, 40.782224070351042 ], [ -111.910375563464513, 40.782224522326537 ], [ -111.910397912433083, 40.782225390858983 ], [ -111.910639140725891, 40.782241249970227 ], [ -111.910822857996621, 40.782239799946076 ], [ -111.911050901374395, 40.782229640788458 ], [ -111.911142705887713, 40.782228464651809 ], [ -111.910760315776344, 40.782228525333402 ], [ -111.91084872468727, 40.782205346692187 ], [ -111.910902415231376, 40.782187731661587 ], [ -111.910950869096055, 40.782168835547587 ], [ -111.910999051919688, 40.782130105552589 ], [ -111.91102467505452, 40.782095520853723 ], [ -111.911067512725538, 40.782047576230646 ], [ -111.911087899152861, 40.782011710464225 ], [ -111.911095946274145, 40.781964040523327 ], [ -111.91111941416905, 40.78189905761834 ], [ -111.911135905872584, 40.781832807393421 ], [ -111.911137521296396, 40.781760062631932 ], [ -111.911137177965557, 40.78173493974073 ], [ -111.911084006025675, 40.78147220195433 ], [ -111.911053590120858, 40.781283338876769 ], [ -111.911029762766304, 40.781162857980163 ], [ -111.911018372706025, 40.781093191293074 ], [ -111.911009813239446, 40.781039701659758 ], [ -111.910980737236841, 40.780885210377768 ], [ -111.910964152673913, 40.780785500083546 ], [ -111.910951480718396, 40.780717496505602 ], [ -111.910943034268556, 40.780672270973739 ], [ -111.911056517851605, 40.780670052624949 ], [ -111.911071675942168, 40.780760847968104 ], [ -111.911103289062979, 40.780910029596058 ], [ -111.911145745894885, 40.781088879593106 ], [ -111.911193891318732, 40.781302067053367 ], [ -111.911227858936869, 40.781496191645175 ], [ -111.911256563036105, 40.781687051787053 ], [ -111.911272171223189, 40.781747097729856 ], [ -111.911343038578252, 40.78187249665141 ], [ -111.91139354577308, 40.781940201338756 ], [ -111.911477311903425, 40.782022850890726 ], [ -111.911604611591486, 40.782108462461956 ], [ -111.911675496339882, 40.782139640032248 ], [ -111.911753402553501, 40.782175390478329 ], [ -111.911914180617487, 40.782228338368753 ], [ -111.911241149400794, 40.782228448824647 ], [ -111.911315736114091, 40.782229407018363 ], [ -111.911666479702163, 40.782234530888026 ], [ -111.911981761482423, 40.782237612060861 ], [ -111.912212120544638, 40.782240434998734 ], [ -111.91264777105323, 40.782244652428091 ], [ -111.912871754223929, 40.782250310768553 ], [ -111.913148354359691, 40.782261589258034 ], [ -111.913469191290559, 40.782268801840324 ], [ -111.913627487661074, 40.782273585553746 ], [ -111.913793374108394, 40.782277757489226 ], [ -111.913796068907018, 40.782277503957488 ], [ -111.913801157315262, 40.782277308866981 ], [ -111.913808682813396, 40.782276630094231 ], [ -111.913821281869161, 40.782274672789576 ], [ -111.913824310729154, 40.782272791275162 ], [ -111.913832039847662, 40.7822721108883 ], [ -111.91383488205804, 40.78227146920338 ], [ -111.913848446179628, 40.782265634404162 ], [ -111.913858105431032, 40.782257199032095 ], [ -111.913866752939242, 40.782249236053921 ], [ -111.913871389549712, 40.782245793865634 ], [ -111.913874161746264, 40.782240044533985 ], [ -111.913877542683906, 40.782234135587103 ], [ -111.913880079434477, 40.782226066210818 ], [ -111.913881593836237, 40.782217695343562 ], [ -111.913882166457697, 40.782200044298321 ], [ -111.913881848112922, 40.782147107288985 ], [ -111.913879141380136, 40.782068493399215 ], [ -111.913875959423919, 40.781955209426243 ], [ -111.913879042871798, 40.781793889702236 ], [ -111.913874749541606, 40.781688663811984 ], [ -111.913875538169833, 40.781567918274561 ], [ -111.913873662736989, 40.781431095261091 ], [ -111.913878634056672, 40.781318365878342 ], [ -111.91387605881863, 40.781219627719288 ], [ -111.913871536517178, 40.781127406326057 ], [ -111.913875477058042, 40.781028616559489 ], [ -111.913874522477812, 40.780988687272881 ], [ -111.913872553830373, 40.780874774493732 ], [ -111.913872740340366, 40.780828953997357 ], [ -111.913874742473652, 40.780796740991832 ], [ -111.913872256466078, 40.780734223910301 ], [ -111.913872341147382, 40.780680974107888 ], [ -111.914096550277222, 40.780681210507012 ], [ -111.914096442338774, 40.78071789753686 ], [ -111.914096788273596, 40.780861956397594 ], [ -111.914096041963262, 40.780906542976425 ], [ -111.91409662261411, 40.781047916877604 ], [ -111.914095376531193, 40.781214485066116 ], [ -111.914093768547204, 40.781394265202124 ], [ -111.914093455259632, 40.78149023994348 ], [ -111.914095195075603, 40.781577529957033 ], [ -111.91409549037931, 40.781757501396434 ], [ -111.914094223718607, 40.781803743226206 ], [ -111.914095937690746, 40.781829735033192 ], [ -111.914095267907413, 40.781899707207181 ], [ -111.914096179250734, 40.782005785443886 ], [ -111.914095823804843, 40.782138291881303 ], [ -111.914096745941023, 40.782165941095052 ], [ -111.914093572891304, 40.7821721579894 ], [ -111.91408633874137, 40.782179232622561 ], [ -111.914078072370515, 40.78219023687889 ], [ -111.914074398769728, 40.782199553616849 ], [ -111.914075603582802, 40.78220821253376 ], [ -111.914075880864132, 40.782228436746266 ], [ -111.9140804454738, 40.782244499157208 ], [ -111.914092068951177, 40.782260505648964 ], [ -111.914101452567394, 40.782271576477264 ], [ -111.914109676639768, 40.78227729030057 ], [ -111.914120649617246, 40.782285459049376 ], [ -111.91413921313773, 40.782292742095606 ], [ -111.914160480293376, 40.782299178151803 ], [ -111.914175717968618, 40.782301534134632 ], [ -111.914177547578348, 40.782370609335885 ], [ -111.914177504646517, 40.782373047680615 ], [ -111.914177784655834, 40.782376760516804 ], [ -111.914177393359964, 40.782381639626053 ], [ -111.914176687081437, 40.782385824658014 ], [ -111.914176900283053, 40.782390234596264 ], [ -111.91417681601105, 40.782395227368525 ], [ -111.914177024437564, 40.782399289058212 ], [ -111.914176584181547, 40.782404310449877 ], [ -111.914175854745977, 40.78243032161096 ], [ -111.914175413942914, 40.782477382460982 ], [ -111.914175510634848, 40.782478245960988 ], [ -111.91379083320416, 40.782489819515959 ], [ -111.914217092052226, 40.782477102029297 ], [ -111.914167865827807, 40.782481363707596 ], [ -111.914152861444833, 40.782481172990984 ], [ -111.914144009574997, 40.782484132605248 ], [ -111.914129620337562, 40.782489200006054 ], [ -111.914112009932666, 40.782496976018187 ], [ -111.91410302376012, 40.782504993295269 ], [ -111.91409822737937, 40.782511635833153 ], [ -111.914087275720789, 40.7825248284773 ], [ -111.914079939737974, 40.782534380619452 ], [ -111.914075380928011, 40.782543497977436 ], [ -111.914074572195958, 40.782558777385866 ], [ -111.914074949860535, 40.782576420902977 ], [ -111.914075328875214, 40.782584260793364 ], [ -111.914080871976253, 40.782592472559038 ], [ -111.914084223302694, 40.782599256943925 ], [ -111.914089206436714, 40.78260623479369 ], [ -111.914092269291544, 40.782611783111982 ], [ -111.914094232014278, 40.782616308185716 ], [ -111.914096206055291, 40.782621658737412 ], [ -111.914099175674565, 40.782640210484715 ], [ -111.914099319979911, 40.782650735329149 ], [ -111.914099611420369, 40.782671991387446 ], [ -111.914100679152298, 40.782690455005081 ], [ -111.914099994958448, 40.782719768076682 ], [ -111.914099836780707, 40.782747838629618 ], [ -111.91410063443216, 40.782766407582585 ], [ -111.914102110895996, 40.782794877969614 ], [ -111.914100928980972, 40.782827497254125 ], [ -111.914101228912372, 40.782849372420237 ], [ -111.914102648787946, 40.782873715417033 ], [ -111.914095259214946, 40.78290906697238 ], [ -111.914098962906934, 40.782951451168387 ], [ -111.914101064428237, 40.782985901968011 ], [ -111.914103598594735, 40.783012300055873 ], [ -111.914095643514216, 40.78306581857759 ], [ -111.914093958487328, 40.783140958577029 ], [ -111.914096297975846, 40.783232371653341 ], [ -111.914094448834035, 40.783295542221104 ], [ -111.914096771074213, 40.783346089837657 ], [ -111.914097079639063, 40.783388397730391 ], [ -111.914095756377705, 40.783430512158141 ], [ -111.914095131531184, 40.783454252174998 ], [ -111.914096593865366, 40.783481690711255 ], [ -111.914096370609656, 40.783505014762788 ], [ -111.914100497726466, 40.783627785237648 ], [ -111.914098688485112, 40.783733472211729 ], [ -111.914094441246789, 40.783819777661506 ], [ -111.914096031497223, 40.783935757295048 ], [ -111.914095433049923, 40.784090143151722 ], [ -111.914099225883263, 40.784129121167148 ], [ -111.913872476078382, 40.784127614978416 ], [ -111.913873097364046, 40.783895625598156 ], [ -111.913872202513019, 40.783592649409364 ], [ -111.913877850922532, 40.78301429459048 ], [ -111.913859308785547, 40.782691644497554 ], [ -111.913872466016556, 40.782562029366218 ], [ -111.913868714507302, 40.782545857312222 ], [ -111.913857369599953, 40.782530364572288 ], [ -111.913849388725851, 40.782522584885996 ], [ -111.913831865896398, 40.78251199128097 ], [ -111.91380955797743, 40.782508865677443 ], [ -111.913790536296105, 40.782507777964447 ], [ -111.913788095661957, 40.782508003684271 ], [ -111.913469157466594, 40.782505999644052 ], [ -111.912841621813854, 40.782503651770604 ], [ -111.912466340276282, 40.782502440575371 ], [ -111.912054596248169, 40.782511181318483 ], [ -111.911701205805528, 40.782502480586835 ], [ -111.911034441178984, 40.782496253391862 ], [ -111.910722484146902, 40.782501850552812 ], [ -111.910228885810525, 40.782493206975062 ], [ -111.91004608411049, 40.78249464883433 ], [ -111.909668039354003, 40.782492405469512 ], [ -111.909460469040084, 40.782491951942745 ], [ -111.908677812718125, 40.78250490952901 ], [ -111.908428407035288, 40.782511052743487 ], [ -111.907865221886382, 40.782502555048062 ], [ -111.907589165938191, 40.782494800524461 ], [ -111.907522802512233, 40.782491926692018 ] ], [ [ -111.909050549330502, 40.782351766969953 ], [ -111.909509352515173, 40.782344698611958 ], [ -111.909607575582157, 40.782346569165362 ], [ -111.910240935465694, 40.782346937742865 ], [ -111.910240915407201, 40.782345468567733 ], [ -111.910242006896851, 40.782340464224106 ], [ -111.910238886312271, 40.782338431773958 ], [ -111.910228811608718, 40.782336748047094 ], [ -111.910180407015176, 40.782330958668879 ], [ -111.910123892633877, 40.782325820969398 ], [ -111.910003611449099, 40.782322361616529 ], [ -111.909899992574964, 40.78232170941569 ], [ -111.90978748275721, 40.782321127222914 ], [ -111.90962432118647, 40.782320062624542 ], [ -111.909528824140693, 40.782319639931458 ], [ -111.909287693099216, 40.78232771154147 ], [ -111.909237649235777, 40.782329281352354 ], [ -111.909128267963439, 40.782331318664674 ], [ -111.909027986936891, 40.782334459649292 ], [ -111.908991638001694, 40.782333864398076 ], [ -111.908893120530593, 40.782338754572962 ], [ -111.908760980071037, 40.782344497204022 ], [ -111.908519075691046, 40.782352573298496 ], [ -111.908203990720793, 40.782352408897594 ], [ -111.908074496070284, 40.782353721917417 ], [ -111.908015730466431, 40.78235359663509 ], [ -111.907960057367561, 40.782353446988928 ], [ -111.907905149391965, 40.782352703562367 ], [ -111.907851795672144, 40.782352535614585 ], [ -111.90745204932783, 40.782352741356057 ], [ -111.907370093925906, 40.782353091980205 ], [ -111.907146640381285, 40.782353379572086 ], [ -111.907014806319225, 40.782353240460495 ], [ -111.906980788751724, 40.782353507850125 ], [ -111.906939797056197, 40.782352654578588 ], [ -111.90689844277999, 40.782353567342483 ], [ -111.906893808017585, 40.782353897635915 ], [ -111.906888782694921, 40.782353937132022 ], [ -111.906886503284426, 40.782356893713917 ], [ -111.906886543253592, 40.782359832066938 ], [ -111.906889269181477, 40.782361279976364 ], [ -111.906894717040615, 40.78236388195976 ], [ -111.906941927232452, 40.782367147504672 ], [ -111.908033679192087, 40.782404735131145 ], [ -111.908190252396125, 40.782404604900321 ], [ -111.908281213026186, 40.782398378942133 ], [ -111.908340309184283, 40.782394387353293 ], [ -111.90852457377035, 40.782383679878599 ], [ -111.908734049525151, 40.782371891964651 ], [ -111.908848762655907, 40.782363935696424 ], [ -111.908974930692764, 40.782356109479068 ], [ -111.909050549330502, 40.782351766969953 ] ], [ [ -111.905125224693492, 40.782356562115979 ], [ -111.904847472831776, 40.782358299697314 ], [ -111.904324688444433, 40.782358430830826 ], [ -111.904181762533398, 40.782359991677062 ], [ -111.904024313582156, 40.782359682528323 ], [ -111.903821340784731, 40.78235928895306 ], [ -111.903772633765513, 40.782359670455463 ], [ -111.903773877103689, 40.782365831918909 ], [ -111.90377389502811, 40.7823671541789 ], [ -111.904094259667289, 40.782364644511389 ], [ -111.905817985958947, 40.782361154143523 ], [ -111.906125049893447, 40.782361388048635 ], [ -111.906557733423938, 40.78236675037234 ], [ -111.906665001016691, 40.782365632071858 ], [ -111.906663165579062, 40.782358593692521 ], [ -111.906598826757161, 40.78236086241327 ], [ -111.90648515315786, 40.782359992276987 ], [ -111.906397554610194, 40.782357594808296 ], [ -111.906340717812697, 40.782357159654957 ], [ -111.906253723081761, 40.782356520534591 ], [ -111.906130771967156, 40.78235572291328 ], [ -111.905480125865211, 40.782356422487332 ], [ -111.905343850276054, 40.78235661018639 ], [ -111.905125224693492, 40.782356562115979 ] ], [ [ -111.914175100982035, 40.782375969110198 ], [ -111.914153868669061, 40.782375789035981 ], [ -111.914144152138633, 40.782380045449941 ], [ -111.914139494338812, 40.78238565493217 ], [ -111.914139270081137, 40.782391577577073 ], [ -111.91414131587409, 40.782395972997122 ], [ -111.914147629761302, 40.78239975412675 ], [ -111.914155601243436, 40.782401896787547 ], [ -111.914175153686969, 40.782402090170301 ], [ -111.914175451160673, 40.782401507336267 ], [ -111.914175100982035, 40.782375969110198 ] ], [ [ -111.911221743087609, 40.782003380384296 ], [ -111.911198022257707, 40.782049851705537 ], [ -111.911170051970331, 40.782103629777701 ], [ -111.911144383732392, 40.782134908864712 ], [ -111.911109148067467, 40.782166263490375 ], [ -111.911085101855392, 40.78218893415638 ], [ -111.911061853116166, 40.782206308920784 ], [ -111.911055846074248, 40.782212307149656 ], [ -111.911049875168459, 40.782220949892952 ], [ -111.911653455599051, 40.782213537970897 ], [ -111.911570195217337, 40.78216791175543 ], [ -111.911488647359704, 40.782120288351521 ], [ -111.911339016329634, 40.781991875024808 ], [ -111.911266204877791, 40.781883352057832 ], [ -111.91124481557388, 40.781845832571605 ], [ -111.911239452438608, 40.781835295724143 ], [ -111.911244582860704, 40.781892449012304 ], [ -111.911236939107809, 40.781937801578266 ], [ -111.911221743087609, 40.782003380384296 ] ] ] } },
{ "type": "Feature", "properties": { "id": "7" }, "geometry": { "type": "Polygon", "coordinates": [ [ [ -111.91432084970431, 40.782301465962036 ], [ -111.914327348602527, 40.782300176114248 ], [ -111.914338146136345, 40.782295549933174 ], [ -111.914347863349434, 40.782291345095466 ], [ -111.914354350925052, 40.782289229768189 ], [ -111.914361913158714, 40.782286280357098 ], [ -111.914377676845419, 40.782287393793467 ], [ -111.914411879543195, 40.78228670997197 ], [ -111.914439594667783, 40.782288141472733 ], [ -111.914464029209597, 40.782287947830277 ], [ -111.914500969501105, 40.782288893422141 ], [ -111.914532468571963, 40.782289056559797 ], [ -111.914571546852599, 40.782287508481033 ], [ -111.914598730314552, 40.782289769725196 ], [ -111.914672033937805, 40.782289188681226 ], [ -111.914701366711867, 40.782289781728515 ], [ -111.914711140528155, 40.782289704249983 ], [ -111.914732334118597, 40.782290774593839 ], [ -111.914739913324041, 40.782289063375011 ], [ -111.914738383882209, 40.782494229065335 ], [ -111.914608603259282, 40.782494845036496 ], [ -111.914536374068206, 40.78249459195748 ], [ -111.914473370070951, 40.782493852938828 ], [ -111.91442939342086, 40.782494614235482 ], [ -111.914415818633231, 40.782494721811624 ], [ -111.914356920822968, 40.782476613268159 ], [ -111.914217092052226, 40.782477102029297 ], [ -111.914214434991777, 40.782303134690856 ], [ -111.91430567428695, 40.782303650127417 ], [ -111.914314899456073, 40.782303164245924 ], [ -111.91432084970431, 40.782301465962036 ] ], [ [ -111.914332711396526, 40.782374434712217 ], [ -111.914306636529972, 40.782373815756671 ], [ -111.914288723502281, 40.782374370476447 ], [ -111.914267546870903, 40.782374538268314 ], [ -111.914250171173251, 40.782374675940808 ], [ -111.914221946983758, 40.782375725131004 ], [ -111.914216511418374, 40.782375355412782 ], [ -111.914219051262606, 40.782402166239649 ], [ -111.914263027855611, 40.782401405023776 ], [ -111.914293446658903, 40.782401989569692 ], [ -111.914333079324365, 40.78240126274649 ], [ -111.914350455028554, 40.782401125061455 ], [ -111.91436294381586, 40.782401026098718 ], [ -111.914368848786296, 40.782396025900432 ], [ -111.914372038802483, 40.782391047215867 ], [ -111.91437190860708, 40.782381554219228 ], [ -111.914365307810556, 40.78237541476782 ], [ -111.914362027224882, 40.782373789628423 ], [ -111.914332711396526, 40.782374434712217 ] ] ] } },
{ "type": "Feature", "properties": { "id": "7" }, "geometry": { "type": "Polygon", "coordinates": [ [ [ -111.910572715885493, 40.782798597071668 ], [ -111.911154844586051, 40.782747157305856 ], [ -111.911188686981077, 40.78284301711124 ], [ -111.91124290594685, 40.782988172655202 ], [ -111.911262206086434, 40.783042527054754 ], [ -111.91140657510968, 40.783380269462967 ], [ -111.911507405818, 40.78358322050844 ], [ -111.911591785450355, 40.783739108628339 ], [ -111.911651395416612, 40.783842775291795 ], [ -111.911703730268073, 40.783933786954009 ], [ -111.911812366667604, 40.78410428540856 ], [ -111.911830585021775, 40.784129740486208 ], [ -111.911201127554577, 40.784122000480629 ], [ -111.911171348333895, 40.784088800152801 ], [ -111.911103945407461, 40.783984846491322 ], [ -111.910968664327385, 40.783742114161406 ], [ -111.910789464003429, 40.783370165809792 ], [ -111.910736418900726, 40.783243808259108 ], [ -111.910607922417796, 40.78289374971115 ], [ -111.910572715885493, 40.782798597071668 ] ] ] } },
{ "type": "Feature", "properties": { "id": "7" }, "geometry": { "type": "Polygon", "coordinates": [ [ [ -111.910238664497271, 40.78115244464955 ], [ -111.910237875268805, 40.781094635316258 ], [ -111.910232387927223, 40.780894065573825 ], [ -111.910231868402434, 40.78078888714392 ], [ -111.91023025800061, 40.78073805001511 ], [ -111.910229354688568, 40.780671882700972 ], [ -111.910785143900242, 40.780672547294245 ], [ -111.910786202889554, 40.78068298753108 ], [ -111.910789694679281, 40.780938602268741 ], [ -111.910800267995043, 40.781041785758745 ], [ -111.910850324400499, 40.781553197624184 ], [ -111.910919988874255, 40.781889963124378 ], [ -111.910962893155443, 40.782045482598171 ], [ -111.910359245557572, 40.782030568449123 ], [ -111.910323824466687, 40.781852525234392 ], [ -111.910298891653653, 40.781704351898163 ], [ -111.910285461456397, 40.781626789964996 ], [ -111.910278025189854, 40.781551967036535 ], [ -111.91026824592781, 40.781473331438448 ], [ -111.910238664497271, 40.78115244464955 ] ] ] } },
{ "type": "Feature", "properties": { "id": "7" }, "geometry": { "type": "Polygon", "coordinates": [ [ [ -111.911412437886156, 40.782953811148687 ], [ -111.911384811046432, 40.782923856947747 ], [ -111.911309438884473, 40.782850811099976 ], [ -111.911216831432426, 40.782769718959479 ], [ -111.911125351560912, 40.782677134655728 ], [ -111.911026174635367, 40.782616550105622 ], [ -111.910931660236443, 40.782574896835364 ], [ -111.910762718219956, 40.782565072665761 ], [ -111.910664517089572, 40.78257588969835 ], [ -111.910979104628353, 40.782501996906277 ], [ -111.911147016729103, 40.782503600051726 ], [ -111.9113774929003, 40.782504848291282 ], [ -111.911601379523887, 40.782507263904556 ], [ -111.911817651075651, 40.782507414727689 ], [ -111.912120864017254, 40.782514223446235 ], [ -111.912111099475922, 40.782515788331978 ], [ -111.912092308074577, 40.782519191213702 ], [ -111.912058348602315, 40.782531547203014 ], [ -111.91202820747327, 40.782545825608516 ], [ -111.911985833492409, 40.782577960107361 ], [ -111.911950234693663, 40.782622500530962 ], [ -111.911935673415655, 40.782666874682555 ], [ -111.911930484096445, 40.782716753639193 ], [ -111.911926061045477, 40.782894196797969 ], [ -111.911926429642804, 40.783028458789687 ], [ -111.911925688401723, 40.783117354707748 ], [ -111.911921713886642, 40.783291818910193 ], [ -111.911923328245194, 40.783338296767035 ], [ -111.911929315344437, 40.78338250851575 ], [ -111.911936770206182, 40.783426708663789 ], [ -111.911951171255524, 40.783477920486568 ], [ -111.911960374580303, 40.783506857892377 ], [ -111.91197706422426, 40.783546521951344 ], [ -111.912036068718308, 40.783710632359913 ], [ -111.912099222403967, 40.783856113690959 ], [ -111.91211334383496, 40.783886871830937 ], [ -111.912145648336207, 40.783959141819288 ], [ -111.912156268698851, 40.783984348756199 ], [ -111.912172061486302, 40.784029970670822 ], [ -111.912190861071224, 40.78408077576109 ], [ -111.912203743810565, 40.784128280299953 ], [ -111.912028325016067, 40.784128179246416 ], [ -111.912002193273665, 40.784068970790919 ], [ -111.911989286090247, 40.784037552172713 ], [ -111.911949297488789, 40.78394456156861 ], [ -111.911901544452974, 40.783833919387874 ], [ -111.91183036988258, 40.783674368184158 ], [ -111.911775691914812, 40.78354034939845 ], [ -111.911718804912283, 40.783405790150063 ], [ -111.911645677536512, 40.78326438558836 ], [ -111.91154360524925, 40.783099499422967 ], [ -111.911505544681617, 40.783053495431055 ], [ -111.911501602234722, 40.783046971396992 ], [ -111.911412437886156, 40.782953811148687 ] ], [ [ -111.911855713054152, 40.78297387977468 ], [ -111.911857403317995, 40.78284704001004 ], [ -111.911866542881356, 40.782585132612304 ], [ -111.911866044412946, 40.782548687904431 ], [ -111.911863914495882, 40.78253605928716 ], [ -111.91185495549891, 40.782524972336333 ], [ -111.911827395035644, 40.782513288529003 ], [ -111.911737384189365, 40.782514743628276 ], [ -111.911629750358514, 40.782515594039012 ], [ -111.911419375130379, 40.782517255915629 ], [ -111.911267648260576, 40.782513991156769 ], [ -111.910988738094858, 40.78251321807268 ], [ -111.911031128212628, 40.782535942746605 ], [ -111.911076494485712, 40.782561619305852 ], [ -111.911134774299938, 40.782601327028992 ], [ -111.911215803458802, 40.782658707473679 ], [ -111.91127706974865, 40.782702110789529 ], [ -111.911365157033316, 40.78277468430985 ], [ -111.911471727974359, 40.782875006129792 ], [ -111.911504980401162, 40.782909332480244 ], [ -111.911591436653325, 40.783005721904615 ], [ -111.911705605378529, 40.783160656444124 ], [ -111.911756668406653, 40.783245051859105 ], [ -111.911778785389515, 40.783288020388419 ], [ -111.911847266456505, 40.78342955456273 ], [ -111.91184914811528, 40.783388256027258 ], [ -111.911851051068155, 40.783312740230407 ], [ -111.911851175995153, 40.783214551062684 ], [ -111.911853283352926, 40.783118205851935 ], [ -111.911855713054152, 40.78297387977468 ] ] ] } },
{ "type": "Feature", "properties": { "id": "7" }, "geometry": { "type": "Polygon", "coordinates": [ [ [ -111.909634432433194, 40.781884780118922 ], [ -111.909645174448983, 40.781871182160472 ], [ -111.909701168567381, 40.78181519992301 ], [ -111.909766514351446, 40.781727406322396 ], [ -111.909819888181445, 40.781622846477958 ], [ -111.909838324972426, 40.781587492200764 ], [ -111.909855186442485, 40.78153231433852 ], [ -111.909875714113909, 40.781411152851888 ], [ -111.90990964384828, 40.781124750939703 ], [ -111.909929116354348, 40.780974091698489 ], [ -111.909942471708234, 40.780853234697844 ], [ -111.909951180373696, 40.780774317899429 ], [ -111.90996280543277, 40.780670087192789 ], [ -111.910105294227961, 40.780665988041129 ], [ -111.910100230285408, 40.78074107420445 ], [ -111.910074431046482, 40.78101765936151 ], [ -111.910054371379118, 40.781204937214405 ], [ -111.910034961335427, 40.781439816343855 ], [ -111.910033263493602, 40.781506610946096 ], [ -111.910040470768166, 40.781588542918563 ], [ -111.910060580038731, 40.78165979393232 ], [ -111.910081342523029, 40.781715170987525 ], [ -111.910124363441852, 40.781808060883591 ], [ -111.910174932537501, 40.781880394020988 ], [ -111.9102139962759, 40.781938271490823 ], [ -111.910291573327726, 40.782013697527809 ], [ -111.91036374240052, 40.782075280976684 ], [ -111.910461152810825, 40.782137987619244 ], [ -111.910597941713363, 40.782213896703801 ], [ -111.908864460726363, 40.782208719312536 ], [ -111.908869625240357, 40.782204711433643 ], [ -111.908914581497896, 40.782200390123883 ], [ -111.908943888742442, 40.782196687968167 ], [ -111.908985522528013, 40.78218792970209 ], [ -111.909025878698188, 40.782181165086136 ], [ -111.909124041469184, 40.782155596724266 ], [ -111.909166898710041, 40.78214087795287 ], [ -111.909214322191957, 40.782126123185769 ], [ -111.909296142928227, 40.782098203943974 ], [ -111.909357721313981, 40.78206895647142 ], [ -111.909408896310609, 40.782042270458177 ], [ -111.909456836712579, 40.782017593516422 ], [ -111.909486545896087, 40.781995539753041 ], [ -111.909544740735569, 40.781957392648287 ], [ -111.909582815034824, 40.781926842621552 ], [ -111.909600177397891, 40.781908357455194 ], [ -111.909634432433194, 40.781884780118922 ] ], [ [ -111.910113305002895, 40.781981671798967 ], [ -111.910089401786834, 40.781951114526137 ], [ -111.910022734864071, 40.781846509505598 ], [ -111.909958339054029, 40.781717091530709 ], [ -111.90993795741106, 40.781657744249273 ], [ -111.909935620158976, 40.781653795479741 ], [ -111.909930707471133, 40.781652346519756 ], [ -111.90992589290839, 40.781658087336901 ], [ -111.909917326847605, 40.781675759338569 ], [ -111.909895349691482, 40.781714612845654 ], [ -111.909796678906204, 40.78184630848299 ], [ -111.909728601979836, 40.781925197430432 ], [ -111.909643348044384, 40.781988352947451 ], [ -111.909574946086281, 40.78204344116314 ], [ -111.909483100987032, 40.782101689516587 ], [ -111.909389122909857, 40.782147061205734 ], [ -111.909349581436274, 40.782165721129324 ], [ -111.909317847533174, 40.782182831812399 ], [ -111.909306125999748, 40.782184411882788 ], [ -111.909312852118276, 40.782199235879801 ], [ -111.909314231156429, 40.782204679912894 ], [ -111.910381194263422, 40.782202713570719 ], [ -111.910290401840555, 40.782146897253504 ], [ -111.910208701465749, 40.782088033744508 ], [ -111.910171494498456, 40.782038737229364 ], [ -111.910113305002895, 40.781981671798967 ] ] ] } },
{ "type": "Feature", "properties": { "id": "7" }, "geometry": { "type": "Polygon", "coordinates": [ [ [ -111.906136366774206, 40.782181940894525 ], [ -111.906138352292288, 40.782166025505219 ], [ -111.906144294455089, 40.782144221224584 ], [ -111.906156239423197, 40.782105075286999 ], [ -111.906166845541875, 40.782075423951859 ], [ -111.906192113746968, 40.782044541694873 ], [ -111.906209468665011, 40.782025437219822 ], [ -111.906241409834976, 40.781999523534367 ], [ -111.906263236144, 40.781985404922558 ], [ -111.906333277432822, 40.781954728867476 ], [ -111.906432144026397, 40.781938889304911 ], [ -111.906584068575754, 40.781938811549004 ], [ -111.906756526074943, 40.781937456466892 ], [ -111.906994357955625, 40.781940050384733 ], [ -111.907290868411167, 40.781939950895037 ], [ -111.907547719955559, 40.781937931020522 ], [ -111.907704796694119, 40.781938927041402 ], [ -111.907844245566352, 40.781938945764594 ], [ -111.907971998233691, 40.781942403680162 ], [ -111.908055597660606, 40.781937282724606 ], [ -111.908084845747368, 40.7819292421269 ], [ -111.90811684691802, 40.781907790552523 ], [ -111.908147243576607, 40.78187630962033 ], [ -111.908159936376805, 40.781838273366411 ], [ -111.90815786325345, 40.781578314051195 ], [ -111.908159047202304, 40.781126415732636 ], [ -111.908166377432622, 40.780856340399488 ], [ -111.908167777992361, 40.780743636059704 ], [ -111.908162318761995, 40.780666132633463 ], [ -111.908375875945083, 40.780665009550304 ], [ -111.908376387576979, 40.780864171433464 ], [ -111.908374134364763, 40.781129743708604 ], [ -111.908371244939161, 40.781200478716656 ], [ -111.908372217742439, 40.781271880679149 ], [ -111.908375639563033, 40.781307558551781 ], [ -111.908395160591766, 40.781339762359714 ], [ -111.908385379761611, 40.781483774370201 ], [ -111.908364397675982, 40.781559812264469 ], [ -111.908346057913491, 40.781668186835851 ], [ -111.908331520865445, 40.781732458346639 ], [ -111.908318246317464, 40.781781656951388 ], [ -111.908310698238211, 40.78182021061285 ], [ -111.908298822983497, 40.781864377211484 ], [ -111.908277217534618, 40.781894673209358 ], [ -111.908259984836562, 40.781922703233725 ], [ -111.908242630538012, 40.781941808011005 ], [ -111.908219450930162, 40.781964305961857 ], [ -111.90816995865687, 40.781994821430771 ], [ -111.908058745922659, 40.782020243729555 ], [ -111.907922293106267, 40.782024664792935 ], [ -111.907727024942503, 40.782021737963163 ], [ -111.907481899702063, 40.782022550241322 ], [ -111.907050358180371, 40.782023711751805 ], [ -111.906786137295882, 40.782023556881555 ], [ -111.906567400716199, 40.782021928288074 ], [ -111.906448560470295, 40.78202620923242 ], [ -111.906366731851406, 40.782053630619799 ], [ -111.906305784988731, 40.78210543499447 ], [ -111.906259894445682, 40.782185015467405 ], [ -111.906136105984032, 40.782189753369195 ], [ -111.906136087030092, 40.782188358798976 ], [ -111.906136366774206, 40.782181940894525 ] ] ] } },
{ "type": "Feature", "properties": { "id": "7" }, "geometry": { "type": "Polygon", "coordinates": [ [ [ -111.910096497407039, 40.783207204243155 ], [ -111.909943038859467, 40.783041327214193 ], [ -111.90985554501583, 40.782949407829911 ], [ -111.90977284821993, 40.782859403161517 ], [ -111.90973896230652, 40.782823407641033 ], [ -111.909618307895258, 40.78272170753398 ], [ -111.909534619600336, 40.782666578474526 ], [ -111.909457741716409, 40.782626458638909 ], [ -111.909366943253261, 40.782588122121375 ], [ -111.909190038916677, 40.782532611621619 ], [ -111.909060805872585, 40.782501411816988 ], [ -111.909280572525077, 40.782497727629718 ], [ -111.90968204358893, 40.782497910611333 ], [ -111.910201019049538, 40.78250344160233 ], [ -111.91054175496771, 40.782503542774137 ], [ -111.910668354664693, 40.782503101585881 ], [ -111.910664517089572, 40.78257588969835 ], [ -111.910507872079137, 40.782642445181253 ], [ -111.910409459933035, 40.782745315095603 ], [ -111.910358038077732, 40.782849487867786 ], [ -111.910323990216753, 40.782989786234538 ], [ -111.910316039301534, 40.783079389895697 ], [ -111.910316116616315, 40.783138804298012 ], [ -111.910327156353077, 40.783194784890597 ], [ -111.910342989150507, 40.783252401329662 ], [ -111.910354863143439, 40.783288849276936 ], [ -111.910397439285987, 40.783369964928482 ], [ -111.910433419534513, 40.78342491189769 ], [ -111.910485175888255, 40.783475085311288 ], [ -111.910664151296416, 40.783681950904658 ], [ -111.910849926580596, 40.783885043284457 ], [ -111.910924937214716, 40.783967390394231 ], [ -111.911006384591857, 40.784055265508051 ], [ -111.911072920699027, 40.784126149754215 ], [ -111.910971491601799, 40.784129182116118 ], [ -111.910949349818978, 40.784106762483297 ], [ -111.910838090716553, 40.783994668596556 ], [ -111.910644988645217, 40.783801490035664 ], [ -111.910601072474037, 40.783756647737285 ], [ -111.910486814271323, 40.783639835126856 ], [ -111.910426134643743, 40.783576714749188 ], [ -111.910340166872089, 40.783475718033365 ], [ -111.910246814897022, 40.78337143217739 ], [ -111.910198599524392, 40.783320765817429 ], [ -111.910096497407039, 40.783207204243155 ] ], [ [ -111.910368092431582, 40.783397672422126 ], [ -111.91034000838043, 40.78335661032191 ], [ -111.910317314182223, 40.783307137381918 ], [ -111.910295323427093, 40.783255427337835 ], [ -111.910279218938939, 40.783204786628346 ], [ -111.910269643180911, 40.783148515538535 ], [ -111.910267101521455, 40.783069873459894 ], [ -111.910268020889035, 40.783029698311189 ], [ -111.910296992719523, 40.782893903105901 ], [ -111.910347459941249, 40.78277355915619 ], [ -111.910380532416141, 40.782723088357322 ], [ -111.910424597641594, 40.782671415040824 ], [ -111.910461506944031, 40.782633187469912 ], [ -111.910525409339115, 40.782583031252578 ], [ -111.910655009211695, 40.782506693706438 ], [ -111.910659374317035, 40.782503869819315 ], [ -111.909931309514874, 40.78250459248266 ], [ -111.909490913017336, 40.782502485633664 ], [ -111.909284276097708, 40.782500208938927 ], [ -111.909301976407832, 40.782506485162699 ], [ -111.909378682862226, 40.782534053985536 ], [ -111.909448046894724, 40.782561401683481 ], [ -111.909540415840723, 40.782607257239498 ], [ -111.909601836839812, 40.782644151541568 ], [ -111.909669976899167, 40.782689361153309 ], [ -111.909702556389561, 40.782710304032499 ], [ -111.909738946068913, 40.782741537780986 ], [ -111.909767577811465, 40.782768997207945 ], [ -111.909792003529716, 40.782790771443743 ], [ -111.909929344062206, 40.782931949795284 ], [ -111.910100551650757, 40.783121118128996 ], [ -111.910370298795513, 40.783418157377149 ], [ -111.910388965660886, 40.783441441372375 ], [ -111.910399193592752, 40.783451402649114 ], [ -111.91046084089669, 40.783518211411327 ], [ -111.910410375381375, 40.783457311715303 ], [ -111.910389824296814, 40.783430416321586 ], [ -111.910368092431582, 40.783397672422126 ] ] ] } },
{ "type": "Feature", "properties": { "id": "7" }, "geometry": { "type": "Polygon", "coordinates": [ [ [ -111.910494066198382, 40.784066177101167 ], [ -111.910534949139418, 40.784086772004926 ], [ -111.910567741324073, 40.784104429917512 ], [ -111.910601125967204, 40.784125790045188 ], [ -111.910458680698056, 40.784125031214728 ], [ -111.910376081897653, 40.784085201223085 ], [ -111.91029134807718, 40.784047741602109 ], [ -111.910015366476159, 40.783938946836777 ], [ -111.9096334943643, 40.783796506160428 ], [ -111.909329556367922, 40.783669689824436 ], [ -111.909298358270476, 40.783652519132453 ], [ -111.909274335682127, 40.783639292987054 ], [ -111.909220782786448, 40.783609147759897 ], [ -111.909163179183082, 40.78357429782892 ], [ -111.909125694397602, 40.783550233540019 ], [ -111.909063312042932, 40.783505536141512 ], [ -111.90902523296748, 40.783471944471636 ], [ -111.908956693141789, 40.783418469568971 ], [ -111.908919030450065, 40.783381344201757 ], [ -111.908846568625705, 40.783312719485366 ], [ -111.908788801867416, 40.783265867352192 ], [ -111.908733735013882, 40.783212639239714 ], [ -111.908651850751184, 40.783134203534594 ], [ -111.908603028245821, 40.783096106826726 ], [ -111.908510568815117, 40.783025521130213 ], [ -111.90834508757672, 40.782947390333788 ], [ -111.908263963935568, 40.782924728393688 ], [ -111.908084613866734, 40.782882569182632 ], [ -111.907984187379398, 40.782874886556769 ], [ -111.907609325275502, 40.782859948435259 ], [ -111.907487829250741, 40.782854049192636 ], [ -111.907217943767748, 40.782851228885356 ], [ -111.90714655554153, 40.782847112380409 ], [ -111.906910817207176, 40.782842169445928 ], [ -111.90684067793012, 40.782841661577002 ], [ -111.906769837247467, 40.782840806139127 ], [ -111.906693118820897, 40.782837496156226 ], [ -111.90666137660665, 40.782837157176196 ], [ -111.906614264286205, 40.782833643928548 ], [ -111.90658416728283, 40.782829055542209 ], [ -111.906551395465982, 40.782821310818683 ], [ -111.906512857621379, 40.782810787079057 ], [ -111.906472062982772, 40.782793691008663 ], [ -111.906428344366816, 40.782766497463847 ], [ -111.90638712622399, 40.782729634549419 ], [ -111.906364656977388, 40.782705333727513 ], [ -111.906338444974295, 40.782667646846484 ], [ -111.906294814649371, 40.782601382992176 ], [ -111.906255546916256, 40.782514373280357 ], [ -111.906236436668422, 40.782475218444809 ], [ -111.906342824681033, 40.782474814342621 ], [ -111.906378416095947, 40.782555428478346 ], [ -111.906393537121076, 40.78258794612546 ], [ -111.906421610842429, 40.782628451392895 ], [ -111.906448095509617, 40.782660042934957 ], [ -111.906477856071206, 40.782689656129335 ], [ -111.906504919171539, 40.782709806418744 ], [ -111.90656775325975, 40.782742786025615 ], [ -111.906601995818463, 40.782751164246662 ], [ -111.906640599887368, 40.782756439806519 ], [ -111.90667917361705, 40.782759484041598 ], [ -111.907006979687765, 40.782766670841013 ], [ -111.907172910375806, 40.782770945309643 ], [ -111.90729367007053, 40.782772785286639 ], [ -111.907582579191242, 40.782780136815298 ], [ -111.907972454473338, 40.782791016809746 ], [ -111.908064241509422, 40.782794199731583 ], [ -111.908171477834657, 40.782800050424896 ], [ -111.908193537654952, 40.782803084653516 ], [ -111.908249544166623, 40.782812964747251 ], [ -111.908318013619294, 40.782828534791562 ], [ -111.908433067590877, 40.782869470615168 ], [ -111.908507351896318, 40.782907798418954 ], [ -111.908560374451625, 40.782941063394176 ], [ -111.908688174839114, 40.783048845095081 ], [ -111.908737317622879, 40.783100341619758 ], [ -111.908813457440687, 40.783173801521329 ], [ -111.908906896742792, 40.783264489352973 ], [ -111.909023332238405, 40.78336629316734 ], [ -111.90917451560972, 40.783490273689928 ], [ -111.909188348197105, 40.783498467632768 ], [ -111.909258940541235, 40.783548539671557 ], [ -111.909363698331816, 40.783601271326077 ], [ -111.909436275683007, 40.783635427820009 ], [ -111.90953184638488, 40.783680491040514 ], [ -111.909693951192381, 40.783745427418999 ], [ -111.909797603997774, 40.783785209581133 ], [ -111.90997185076445, 40.783847382431595 ], [ -111.910121297184091, 40.7839073970448 ], [ -111.910253804228702, 40.783958454361674 ], [ -111.910324266207553, 40.783986759356161 ], [ -111.910369145283283, 40.784008058288649 ], [ -111.910420255099041, 40.784032132347427 ], [ -111.910456674668239, 40.784048996755672 ], [ -111.910494066198382, 40.784066177101167 ] ] ] } }
]
}
